STARLINK-36134          
1 66863U 25281R   25357.83334491 -.01991193  00000+0 -26860-1 0  9991
2 66863  43.0002  54.8146 0001083 269.8897 335.1293 15.60413239  3170
STARLINK-36070          
1 66864U 25281S   25357.83334491 -.01995901  00000+0 -26928-1 0  9998
2 66864  43.0000  54.8093 0001230 271.2933 335.6410 15.60415817  3206
STARLINK-36117          
1 66865U 25281T   25357.83334491 -.01990061  00000+0 -26844-1 0  9998
2 66865  43.0001  54.8004 0000956 280.8245 329.9440 15.60413218  3174
STARLINK-36126          
1 66866U 25281U   25357.83334491 -.01994304  00000+0 -26905-1 0  9991
2 66866  43.0000  54.7955 0001045 267.2139 345.4704 15.60416373  3204
STARLINK-36101          
1 66867U 25281V   25357.83334491 -.01994590  00000+0 -26911-1 0  9996
2 66867  43.0002  54.7903 0001061 273.6598 340.9421 15.60414863  3015
STARLINK-36108          
1 66868U 25281W   25357.83334491 -.01989703  00000+0 -26838-1 0  9995
2 66868  43.0000  54.7855 0001143 275.0231 341.4957 15.60411939  3012
STARLINK-36092          
1 66869U 25281X   25357.83334491 -.01989350  00000+0 -26832-1 0  9998
2 66869  43.0002  54.7808 0001151 273.3643 345.0704 15.60412658  3200
STARLINK-36114          
1 66870U 25281Y   25357.83334491 -.01989092  00000+0 -26826-1 0  9996
2 66870  42.9999  54.7758 0001348 270.5455 349.8085 15.60412255  3079
STARLINK-36095          
1 66871U 25281Z   25357.83334491 -.01989810  00000+0 -26837-1 0  9997
2 66871  43.0001  54.7704 0001185 272.3829 349.8863 15.60413463  3202
STARLINK-36082          
1 66872U 25281AA  25357.83334491 -.01982543  00000+0 -26730-1 0  9996
2 66872  43.0000  54.7660 0001200 272.8384 351.3486 15.60409185  3072
STARLINK-36128          
1 66873U 25281AB  25357.83334491 -.02017079  00000+0 -27240-1 0  9998
2 66873  43.0001  54.7491 0001295 270.0841 359.8506 15.60429056  3208
STARLINK-36129          
1 66874U 25281AC  25357.83334491 -.02007917  00000+0 -27105-1 0  9999
2 66874  43.0002  54.7595 0001165 267.9191 358.1818 15.60424586  3205
STARLINK-36053          
1 66875U 25281AD  25357.83334491 -.02008898  00000+0 -27121-1 0  9997
2 66875  43.0004  54.7436 0001355 276.9045 354.9497 15.60421998  3202
STARLINK-35702          
1 66876U 25281AE  25357.83334491 -.02007572  00000+0 -27097-1 0  9998
2 66876  43.0001  54.7544 0001513 272.1594 355.8585 15.60423052  3204
ZQ-3 R/B                
1 66877U 25282A   25357.75778637  .01092378  78754-5  18879-3 0  9997
2 66877  56.9493  14.7741 0685556 239.3958 113.7744 14.82080967  3016
STARLINK-35866          
1 66878U 25283A   25357.83334491 -.01944347  00000+0 -19524-1 0  9997
2 66878  53.1592  18.3973 0001017  77.6199 288.1991 15.67931447  4213
STARLINK-35749          
1 66879U 25283B   25357.83334491 -.01943604  00000+0 -19515-1 0  9993
2 66879  53.1590  18.3890 0001051  77.1688 292.4839 15.67931160  4217
STARLINK-35844          
1 66880U 25283C   25357.83334491 -.01942362  00000+0 -19503-1 0  9992
2 66880  53.1588  18.3931 0001009  89.7595 277.9780 15.67929778  4216
STARLINK-35860          
1 66881U 25283D   25357.83334491 -.01942851  00000+0 -19507-1 0  9990
2 66881  53.1590  18.3847 0001054  76.8536 294.7163 15.67930578  4210
STARLINK-35912          
1 66882U 25283E   25357.83334491 -.01941888  00000+0 -19496-1 0  9997
2 66882  53.1590  18.3815 0001176  74.9174 298.5685 15.67929590  4211
STARLINK-35947          
1 66883U 25283F   25357.83334491 -.01941960  00000+0 -19498-1 0  9991
2 66883  53.1591  18.3780 0001119  74.1680 301.2362 15.67929026  4268
STARLINK-36057          
1 66884U 25283G   25357.83334491 -.01941392  00000+0 -19491-1 0  9994
2 66884  53.1592  18.3691 0001056  79.8246 299.4114 15.67930457  4219
STARLINK-35954          
1 66885U 25283H   25357.83334491 -.01941808  00000+0 -19497-1 0  9993
2 66885  53.1594  18.3732 0001037  76.8835 300.4379 15.67929296  4213
STARLINK-35900          
1 66886U 25283J   25357.83334491 -.01939476  00000+0 -19471-1 0  9994
2 66886  53.1590  18.3644 0001127  90.2310 290.9245 15.67927471  4218
STARLINK-35925          
1 66887U 25283K   25357.83334491 -.01943032  00000+0 -19510-1 0  9992
2 66887  53.1591  18.3611 0001096  75.2318 307.8405 15.67929515  4217
STARLINK-35919          
1 66888U 25283L   25357.83334491 -.01942172  00000+0 -19501-1 0  9997
2 66888  53.1593  18.3568 0001023  72.8370 312.1514 15.67929730  4211
STARLINK-35852          
1 66889U 25283M   25357.83334491 -.01943526  00000+0 -19515-1 0  9997
2 66889  53.1591  18.3520 0001060  74.7775 312.1282 15.67930432  4212
STARLINK-35885          
1 66890U 25283N   25357.83334491 -.01946205  00000+0 -19544-1 0  9998
2 66890  53.1592  18.3485 0001095  75.9112 312.9100 15.67932508  4214
STARLINK-35855          
1 66891U 25283P   25357.83334491 -.01945076  00000+0 -19532-1 0  9991
2 66891  53.1594  18.3445 0001006  73.8453 316.8936 15.67931705  4218
STARLINK-35883          
1 66892U 25283Q   25357.83334491 -.01943796  00000+0 -19517-1 0  9992
2 66892  53.1589  18.3402 0001149  74.4121 318.2437 15.67930425  4156
STARLINK-36033          
1 66893U 25283R   25357.83334491 -.01944535  00000+0 -19526-1 0  9995
2 66893  53.1587  18.3361 0001127  71.3550 323.2183 15.67930232  4214
STARLINK-35718          
1 66894U 25283S   25357.83334491 -.01944615  00000+0 -19526-1 0  9995
2 66894  53.1590  18.3329 0001095  73.0931 323.3958 15.67931459  4212
STARLINK-35971          
1 66895U 25283T   25357.83334491 -.01941159  00000+0 -19490-1 0  9996
2 66895  53.1591  18.3229 0001103  72.8668 327.4591 15.67927619  4218
STARLINK-35791          
1 66896U 25283U   25357.83334491 -.01940574  00000+0 -19484-1 0  9990
2 66896  53.1591  18.3275 0000838  90.8163 307.5924 15.67929134  4217
STARLINK-36079          
1 66897U 25283V   25357.83334491 -.01936250  00000+0 -19439-1 0  9997
2 66897  53.1590  18.3198 0001027  66.6174 335.6292 15.67922701  4218
STARLINK-36065          
1 66898U 25283W   25357.83334491 -.01954609  00000+0 -19636-1 0  9995
2 66898  53.1594  18.3153 0001142  72.8657 331.2928 15.67935838  4210
STARLINK-36064          
1 66899U 25283X   25357.83334491 -.01947253  00000+0 -19556-1 0  9994
2 66899  53.1592  18.3114 0001195  72.6651 333.4108 15.67931217  4150
STARLINK-36074          
1 66900U 25283Y   25357.83334491 -.01949245  00000+0 -19578-1 0  9994
2 66900  53.1592  18.3071 0001093  68.2405 339.7515 15.67932921  4211
STARLINK-36043          
1 66901U 25283Z   25357.83334491 -.01945988  00000+0 -19543-1 0  9997
2 66901  53.1595  18.3030 0001073  69.6962 340.2131 15.67930879  4212
STARLINK-35983          
1 66902U 25283AA  25357.83334491 -.01932528  00000+0 -19395-1 0  9999
2 66902  53.1590  18.2991 0001293  68.8306 342.9961 15.67922294  4212
STARLINK-36077          
1 66903U 25283AB  25357.83334491 -.01953964  00000+0 -19630-1 0  9999
2 66903  53.1588  18.2955 0001135  70.3029 343.4409 15.67934856  4215
STARLINK-36059          
1 66904U 25283AC  25357.83334491 -.01949615  00000+0 -19582-1 0  9994
2 66904  53.1591  18.2909 0001056  68.9435 346.7149 15.67933875  4212
STARLINK-36075          
1 66905U 25283AD  25357.83334491 -.01939948  00000+0 -19476-1 0  9995
2 66905  53.1592  18.2871 0001238  73.7550 343.8234 15.67926315  4210
1998-067XS              
1 66906U 98067XS  25357.55486240  .00028470  00000+0  48513-3 0  9997
2 66906  51.6316  88.7613 0002815 256.8779 103.1896 15.51136039  3290
1998-067XT              
1 66907U 98067XT  25357.47904909  .00065231  00000+0  10349-2 0  9997
2 66907  51.6313  89.0045 0003882 291.7662  68.2915 15.52745506  3283
1998-067XU              
1 66908U 98067XU  25357.47806396  .00064549  00000+0  10207-2 0  9993
2 66908  51.6312  88.9976 0003921 289.9814  70.0754 15.52842233  3283
SILVERSAT               
1 66909U 98067XV  25356.51144008  .00071888  00000+0  11325-2 0  9999
2 66909  51.6306  93.7929 0003866 288.2093  71.8476 15.52898333  3134
1998-067XW              
1 66910U 98067XW  25357.47495927  .00062264  00000+0  97986-3 0  9992
2 66910  51.6309  88.9767 0003988 265.4983  94.5551 15.52989430  3286
1998-067XX              
1 66911U 98067XX  25357.53598873  .00072234  00000+0  11146-2 0  9995
2 66911  51.6308  88.6344 0003682 272.7322  87.3247 15.53470318  3286
1998-067XY              
1 66912U 98067XY  25356.58173682  .00053250  00000+0  86868-3 0  9998
2 66912  51.6324  93.5129 0003912 278.0711  81.9835 15.52056622  3132
2025-284A               
1 66913U 25284A   25357.10748193  .00008748  00000+0  55264-3 0  9992
2 66913  80.4035 116.7336 0013475 259.6514 100.3189 15.08893564  2694
2025-284B               
1 66914U 25284B   25350.28554881  .00008068  00000+0  38445-3 0  9991
2 66914  80.4045 125.2713 0008179 234.9626 125.0834 15.18985981  1668
HULIANWANG DIGUI-105    
1 66915U 25285A   25357.87978493  .00000028  00000+0  11313-3 0  9997
2 66915  50.0054  71.9096 0008101 319.9235  40.1071 14.03719298  2477
HULIANWANG DIGUI-106    
1 66916U 25285B   25357.87691928  .00000024  00000+0  11120-3 0  9995
2 66916  50.0064  71.8964 0006880 313.2360  46.7969 14.03704153  2472
HULIANWANG DIGUI-107    
1 66917U 25285C   25357.87516190  .00000020  00000+0  10853-3 0  9991
2 66917  50.0029  71.8795 0007525 322.6171  37.4209 14.03664150  2473
HULIANWANG DIGUI-108    
1 66918U 25285D   25357.87451914  .00000030  00000+0  11468-3 0  9998
2 66918  50.0062  71.8806 0006669 317.2252  42.8133 14.03603256  2478
HULIANWANG DIGUI-109    
1 66919U 25285E   25357.87282899  .00000043  00000+0  12277-3 0  9996
2 66919  50.0075  71.8770 0007919 329.5528  30.4915 14.03727450  2478
HULIANWANG DIGUI-110    
1 66920U 25285F   25357.87206623  .00000026  00000+0  11193-3 0  9996
2 66920  50.0120  71.8800 0005630 326.6808  33.3741 14.03683644  2477
HULIANWANG DIGUI-111    
1 66921U 25285G   25357.87129175  .00000032  00000+0  11601-3 0  9994
2 66921  50.0124  71.8794 0006712 330.4652  29.5873 14.03633200  2472
